NORAD_CAT_ID,OBJECT_NAME,OBJECT_TYPE,EPOCH,MEAN_MOTION,ECCENTRICITY,INCLINATION,RA_OF_ASC_NODE,ARG_OF_PERICENTER,MEAN_ANOMALY,BSTAR,MEAN_MOTION_DOT,MEAN_MOTION_DDOT,TLE_LINE0,TLE_LINE1,TLE_LINE2,SEMIMAJOR_AXIS,PERIOD,APOGEE,PERIGEE,DECAYED
55927.0,STARLINK-5919,PAYLOAD,2024-04-28 16:40:56,14.98319177,0.0002756,70.0019,218.8389,265.0174,95.0671,-0.00018772,-2.331e-05,0.0,0 STARLINK-5919,1 55927U 23037P   24119.69509849 -.00002331  00000-0 -18772-3 0  9999,2 55927  70.0019 218.8389 0002756 265.0174  95.0671 14.98319177 61635,6950.226,96.108,574.007,570.176,0.0
55927.0,STARLINK-5919,PAYLOAD,2024-04-29 13:30:41,14.98339593,0.0002982,70.0016,216.6508,269.5976,90.4841,0.00066597,7.864e-05,0.0,0 STARLINK-5919,1 55927U 23037P   24120.56297587  .00007864  00000-0  66597-3 0  9992,2 55927  70.0016 216.6508 0002982 269.5976  90.4841 14.98339593 62106,6950.163,96.106,574.101,569.956,0.0
55927.0,STARLINK-5919,PAYLOAD,2024-04-29 16:42:57,14.98346734,0.0003044,70.0016,216.3143,270.5809,89.5001,0.0011628,0.00013815,0.0,0 STARLINK-5919,1 55927U 23037P   24120.69649650  .00013815  00000-0  11628-2 0  9995,2 55927  70.0016 216.3143 0003044 270.5809  89.5001 14.98346734 61780,6950.141,96.106,574.122,569.891,0.0
55927.0,STARLINK-5919,PAYLOAD,2024-04-30 05:32:01,14.98339742,0.0002716,70.0025,214.9686,269.7741,90.3107,0.00031855,3.711e-05,0.0,0 STARLINK-5919,1 55927U 23037P   24121.23057545  .00003711  00000-0  31855-3 0  9991,2 55927  70.0025 214.9686 0002716 269.7741  90.3107 14.98339742 62202,6950.163,96.106,573.915,570.14,0.0
55927.0,STARLINK-5919,PAYLOAD,2024-04-30 13:32:42,14.98335051,0.0002823,70.002,214.1269,267.4598,92.6238,0.00031399,3.656e-05,0.0,0 STARLINK-5919,1 55927U 23037P   24121.56437642  .00003656  00000-0  31399-3 0  9998,2 55927  70.0020 214.1269 0002823 267.4598  92.6238 14.98335051 61916,6950.177,96.107,574.004,570.08,0.0
55927.0,STARLINK-5919,PAYLOAD,2024-04-30 15:08:50,14.98335385,0.0002815,70.0019,213.9586,268.1305,91.9532,0.00029853,3.471e-05,0.0,0 STARLINK-5919,1 55927U 23037P   24121.63113620  .00003471  00000-0  29853-3 0  9990,2 55927  70.0019 213.9586 0002815 268.1305  91.9532 14.98335385 61928,6950.176,96.107,573.998,570.085,0.0
55927.0,STARLINK-5919,PAYLOAD,2024-04-30 23:09:30,14.98338868,0.0002836,70.0021,213.1169,269.1627,90.9208,0.000252,2.916e-05,0.0,0 STARLINK-5919,1 55927U 23037P   24121.96493367  .00002916  00000-0  25200-3 0  9990,2 55927  70.0021 213.1169 0002836 269.1627  90.9208 14.98338868 62313,6950.165,96.106,574.002,570.059,0.0
55927.0,STARLINK-5919,PAYLOAD,2024-05-01 11:58:34,14.98344871,0.0002885,70.0019,211.7702,270.6299,89.4529,0.00024786,2.867e-05,0.0,0 STARLINK-5919,1 55927U 23037P   24122.49900749  .00002867  00000-0  24786-3 0  9999,2 55927  70.0019 211.7702 0002885 270.6299  89.4529 14.98344871 62054,6950.147,96.106,574.017,570.007,0.0
55927.0,STARLINK-5919,PAYLOAD,2024-05-02 05:36:03,14.98333184,0.0002831,70.0017,209.9186,271.0784,89.0051,2.7938e-05,2.4e-06,0.0,0 STARLINK-5919,1 55927U 23037P   24123.23337008  .00000240  00000-0  27938-4 0  9990,2 55927  70.0017 209.9186 0002831 271.0784  89.0051 14.98333184 62503,6950.183,96.107,574.016,570.08,0.0
55927.0,STARLINK-5919,PAYLOAD,2024-05-02 13:36:43,14.9833063,0.0003157,70.0001,209.0767,268.918,91.1617,4.6637e-05,4.63e-06,0.0,0 STARLINK-5919,1 55927U 23037P   24123.56717427  .00000463  00000-0  46637-4 0  9997,2 55927  70.0001 209.0767 0003157 268.9180  91.1617 14.98330630 62212,6950.191,96.107,574.25,569.862,0.0
55927.0,STARLINK-5919,PAYLOAD,2024-05-03 05:38:03,14.98335649,0.0003321,70.0007,207.3926,269.2594,90.8184,0.00011765,1.311e-05,0.0,0 STARLINK-5919,1 55927U 23037P   24124.23476638  .00001311  00000-0  11765-3 0  9994,2 55927  70.0007 207.3926 0003321 269.2594  90.8184 14.98335649 62650,6950.175,96.107,574.349,569.732,0.0
55927.0,STARLINK-5919,PAYLOAD,2024-05-03 13:38:43,14.98347709,0.0003222,70.0012,206.5516,268.8695,91.2095,-0.0002134,-2.64e-05,0.0,0 STARLINK-5919,1 55927U 23037P   24124.56855957 -.00002640  00000-0 -21340-3 0  9993,2 55927  70.0012 206.5516 0003222 268.8695  91.2095 14.98347709 62701,6950.138,96.106,574.242,569.764,0.0
55927.0,STARLINK-5919,PAYLOAD,2024-05-03 15:14:51,14.98348903,0.0003141,70.0012,206.3833,268.7893,91.2906,-0.00014755,-1.854e-05,0.0,0 STARLINK-5919,1 55927U 23037P   24124.63531903 -.00001854  00000-0 -14755-3 0  9991,2 55927  70.0012 206.3833 0003141 268.7893  91.2906 14.98348903 62371,6950.134,96.106,574.182,569.816,0.0
55927.0,STARLINK-5919,PAYLOAD,2024-05-04 05:40:05,14.98325147,0.0002703,70.0013,204.868,270.6059,89.479,0.00010134,1.116e-05,0.0,0 STARLINK-5919,1 55927U 23037P   24125.23617440  .00001116  00000-0  10134-3 0  9995,2 55927  70.0013 204.8680 0002703 270.6059  89.4790 14.98325147 62807,6950.208,96.107,573.952,570.194,0.0
55927.0,STARLINK-5919,PAYLOAD,2024-05-05 12:06:39,14.98330171,0.0003062,70.002,201.6709,271.0344,89.0464,0.00030238,3.517e-05,0.0,0 STARLINK-5919,1 55927U 23037P   24126.50462006  .00003517  00000-0  30238-3 0  9996,2 55927  70.0020 201.6709 0003062 271.0344  89.0464 14.98330171 62990,6950.192,96.107,574.186,569.929,0.0
55927.0,STARLINK-5919,PAYLOAD,2024-05-05 13:42:47,14.98332483,0.0003149,70.0019,201.503,270.9865,89.0933,0.00036177,4.227e-05,0.0,0 STARLINK-5919,1 55927U 23037P   24126.57137952  .00004227  00000-0  36177-3 0  9999,2 55927  70.0019 201.5030 0003149 270.9865  89.0933 14.98332483 62669,6950.185,96.107,574.239,569.862,0.0
55927.0,STARLINK-5919,PAYLOAD,2024-05-05 21:43:27,14.98341023,0.0003113,70.002,200.6613,272.1944,87.8859,0.00044713,5.248e-05,0.0,0 STARLINK-5919,1 55927U 23037P   24126.90517685  .00005248  00000-0  44713-3 0  9990,2 55927  70.0020 200.6613 0003113 272.1944  87.8859 14.98341023 62710,6950.159,96.106,574.187,569.86,0.0
55927.0,STARLINK-5919,PAYLOAD,2024-05-06 04:07:59,14.98349691,0.0003131,70.0017,199.9876,271.2549,88.8251,0.00094326,0.00011186,0.0,0 STARLINK-5919,1 55927U 23037P   24127.17221549  .00011186  00000-0  94326-3 0  9994,2 55927  70.0017 199.9876 0003131 271.2549  88.8251 14.98349691 63096,6950.132,96.106,574.173,569.821,0.0
55927.0,STARLINK-5919,PAYLOAD,2024-05-06 13:44:47,14.98366133,0.0003155,70.0021,198.9779,274.3675,85.7123,0.0013513,0.00016083,0.0,0 STARLINK-5919,1 55927U 23037P   24127.57276823  .00016083  00000-0  13513-2 0  9992,2 55927  70.0021 198.9779 0003155 274.3675  85.7123 14.98366133 62815,6950.081,96.105,574.139,569.753,0.0
55927.0,STARLINK-5919,PAYLOAD,2024-05-06 21:45:27,14.98353113,0.0002081,70.0047,198.1363,272.1681,87.924,0.00041334,4.845e-05,0.0,0 STARLINK-5919,1 55927U 23037P   24127.90656825  .00004845  00000-0  41334-3 0  9999,2 55927  70.0047 198.1363 0002081 272.1681  87.9240 14.98353113 62867,6950.121,96.106,573.433,570.54,0.0
55927.0,STARLINK-5919,PAYLOAD,2024-05-07 12:10:39,14.98341239,0.0003133,70.0016,196.6215,270.088,89.992,3.2863e-05,2.99e-06,0.0,0 STARLINK-5919,1 55927U 23037P   24128.50740491  .00000299  00000-0  32863-4 0  9996,2 55927  70.0016 196.6215 0003133 270.0880  89.9920 14.98341239 63290,6950.158,96.106,574.201,569.846,0.0
55927.0,STARLINK-5919,PAYLOAD,2024-05-07 13:46:47,14.98341635,0.000311,70.0017,196.4532,269.7869,90.2934,4.1555e-05,4.03e-06,0.0,0 STARLINK-5919,1 55927U 23037P   24128.57416361  .00000403  00000-0  41555-4 0  9994,2 55927  70.0017 196.4532 0003110 269.7869  90.2934 14.98341635 62961,6950.157,96.106,574.183,569.86,0.0
55927.0,STARLINK-5919,PAYLOAD,2024-05-07 21:47:28,14.98340078,0.0003054,70.0016,195.6124,270.2399,89.841,0.00016145,1.834e-05,0.0,0 STARLINK-5919,1 55927U 23037P   24128.90796356  .00001834  00000-0  16145-3 0  9991,2 55927  70.0016 195.6124 0003054 270.2399  89.8410 14.98340078 63010,6950.162,96.106,574.149,569.904,0.0
55927.0,STARLINK-5919,PAYLOAD,2024-05-08 05:48:08,14.98332879,0.0003092,70.0015,194.7704,268.7211,91.3594,0.0001311,1.472e-05,0.0,0 STARLINK-5919,1 55927U 23037P   24129.24176540  .00001472  00000-0  13110-3 0  9993,2 55927  70.0015 194.7704 0003092 268.7211  91.3594 14.98332879 63404,6950.184,96.107,574.198,569.9,0.0
55927.0,STARLINK-5919,PAYLOAD,2024-05-08 13:48:48,14.98337971,0.0003035,70.0014,193.9289,269.1296,90.9515,0.00025426,2.943e-05,0.0,0 STARLINK-5919,1 55927U 23037P   24129.57556439  .00002943  00000-0  25426-3 0  9995,2 55927  70.0014 193.9289 0003035 269.1296  90.9515 14.98337971 63111,6950.168,96.106,574.143,569.924,0.0
55927.0,STARLINK-5919,PAYLOAD,2024-05-08 21:49:29,14.98334529,0.000312,70.0011,193.0875,271.6176,88.4626,0.00020775,2.387e-05,0.0,0 STARLINK-5919,1 55927U 23037P   24129.90936547  .00002387  00000-0  20775-3 0  9998,2 55927  70.0011 193.0875 0003120 271.6176  88.4626 14.98334529 63166,6950.179,96.107,574.212,569.875,0.0
55927.0,STARLINK-5919,PAYLOAD,2024-05-09 05:50:09,14.98335107,0.0003115,70.0009,192.2457,269.9559,90.1244,0.00028552,3.316e-05,0.0,0 STARLINK-5919,1 55927U 23037P   24130.24316594  .00003316  00000-0  28552-3 0  9995,2 55927  70.0009 192.2457 0003115 269.9559  90.1244 14.98335107 63551,6950.177,96.107,574.207,569.877,0.0
55927.0,STARLINK-5919,PAYLOAD,2024-05-09 13:50:49,14.98336726,0.0003141,70.0006,191.4037,269.1022,90.9777,0.00021452,2.468e-05,0.0,0 STARLINK-5919,1 55927U 23037P   24130.57696413  .00002468  00000-0  21452-3 0  9991,2 55927  70.0006 191.4037 0003141 269.1022  90.9777 14.98336726 63264,6950.172,96.107,574.22,569.854,0.0
55927.0,STARLINK-5919,PAYLOAD,2024-05-10 12:16:42,14.98339793,0.0003058,70.0007,189.0469,268.5994,91.4814,0.00023728,2.74e-05,0.0,0 STARLINK-5919,1 55927U 23037P   24131.51160132  .00002740  00000-0  23728-3 0  9991,2 55927  70.0007 189.0469 0003058 268.5994  91.4814 14.98339793 63743,6950.163,96.106,574.153,569.902,0.0
55927.0,STARLINK-5919,PAYLOAD,2024-05-10 13:52:50,14.98341544,0.0003059,70.0007,188.8786,268.6633,91.4175,0.00026526,3.074e-05,0.0,0 STARLINK-5919,1 55927U 23037P   24131.57836013  .00003074  00000-0  26526-3 0  9995,2 55927  70.0007 188.8786 0003059 268.6633  91.4175 14.98341544 63415,6950.157,96.106,574.148,569.896,0.0
